OBJECT_NAME,OBJECT_ID,EPOCH,MEAN_MOTION,ECCENTRICITY,INCLINATION,RA_OF_ASC_NODE,ARG_OF_PERICENTER,MEAN_ANOMALY,EPHEMERIS_TYPE,CLASSIFICATION_TYPE,NORAD_CAT_ID,ELEMENT_SET_NO,REV_AT_EPOCH,BSTAR,MEAN_MOTION_DOT,MEAN_MOTION_DDOT
STARLINK-37987,2026-150L,2026-07-16T20:00:01.999008,15.75157051,.0001362,97.2857,36.2716,102.0567,84.5928,0,U,69749,999,356,.12139E-3,.17988E-3,0
STARLINK-38037,2026-150M,2026-07-16T12:40:50.216736,15.80915172,.0001698,97.2823,35.9956,107.9131,252.2323,0,U,69750,999,353,.12102E-2,.239225E-2,0
STARLINK-38049,2026-150N,2026-07-16T12:39:22.156128,15.80879851,.0001142,97.2840,35.9982,114.7185,245.4202,0,U,69751,999,353,.10178E-2,.199931E-2,0
STARLINK-38029,2026-150P,2026-07-16T20:00:01.999008,15.75221935,.0001171,97.2847,36.3137,99.5051,181.1261,0,U,69752,999,356,-.88508E-3,-.13033E-2,0
STARLINK-37965,2026-150Q,2026-07-16T20:00:01.999008,15.75198031,.0001335,97.2846,36.2964,90.0487,152.5854,0,U,69753,999,356,-.48945E-3,-.72542E-3,0
STARLINK-38048,2026-150R,2026-07-16T12:30:33.311232,15.80946674,.0000923,97.2830,36.0066,127.9719,232.1633,0,U,69754,999,353,.16624E-2,.332728E-2,0
STARLINK-38006,2026-150S,2026-07-16T20:00:01.999008,15.75219465,.0000888,97.2843,36.3199,110.1972,184.4355,0,U,69755,999,356,-.87851E-3,-.12936E-2,0
STARLINK-38036,2026-150T,2026-07-16T20:00:01.999008,15.75194421,.000103,97.2847,36.3364,97.4027,235.2186,0,U,69756,999,356,-.42571E-3,-.63169E-3,0
STARLINK-38058,2026-150U,2026-07-16T12:24:17.922240,15.80782261,.0000963,97.2792,36.0145,44.0115,316.1230,0,U,69757,999,353,-.99102E-4,-.19053E-3,0
STARLINK-38066,2026-150V,2026-07-16T12:24:04.711680,15.80944595,.0001105,97.2826,36.0134,123.4437,236.6937,0,U,69758,999,353,.16597E-2,.332119E-2,0
STARLINK-38035,2026-150W,2026-07-16T12:23:54.049920,15.80943955,.0001208,97.2826,36.0135,127.8766,232.2612,0,U,69759,999,353,.16439E-2,.328828E-2,0
STARLINK-38056,2026-150X,2026-07-16T12:18:55.342656,15.80934261,.0001262,97.2830,36.0188,120.3453,239.7940,0,U,69760,999,353,.16504E-2,.330031E-2,0
STARLINK-38069,2026-150Y,2026-07-16T12:13:56.515296,15.80918590,.0001586,97.2831,36.0229,115.6354,244.5079,0,U,69761,999,353,.13455E-2,.266864E-2,0
STARLINK-38019,2026-150Z,2026-07-16T20:00:01.999008,15.75188826,.0000797,97.2839,36.3210,86.1279,212.5072,0,U,69762,999,356,-.39683E-3,-.58907E-3,0
KUIPER-00258,2026-151A,2026-07-16T21:28:01.319808,15.34938526,.0012571,51.8672,172.3653,167.2634,192.8672,0,U,69763,999,227,-.35556E-2,-.121129E-2,0
KUIPER-00526,2026-151B,2026-07-16T13:15:09.701568,15.37335722,.0005902,51.8759,173.8315,143.0634,217.0760,0,U,69764,999,222,.32313E-3,.11639E-3,0
KUIPER-00558,2026-151C,2026-07-16T21:11:31.588800,15.35130973,.0007487,51.8751,172.2967,160.1775,199.9503,0,U,69765,999,227,-.53616E-2,-.181799E-2,0
KUIPER-00569,2026-151D,2026-07-16T10:05:34.338912,15.37675352,.0003566,51.8774,174.4478,139.8001,220.3251,0,U,69766,999,220,.38488E-2,.147069E-2,0
KUIPER-00589,2026-151E,2026-07-16T11:40:20.353152,15.37366483,.0005401,51.8750,174.1407,146.7112,213.4215,0,U,69767,999,221,.86126E-4,.2813E-4,0
KUIPER-00598,2026-151F,2026-07-16T07:24:25.214688,15.33661092,.0017224,51.8664,175.1913,146.2210,213.9876,0,U,69768,999,218,-.2333E-1,-.71687E-2,0
KUIPER-00604,2026-151G,2026-07-16T11:29:19.777632,15.38250655,.0002703,51.8797,174.0877,110.2726,249.8551,0,U,69769,999,221,.24006E-3,.8806E-4,0
KUIPER-00609,2026-151H,2026-07-16T12:57:19.937376,15.38657691,.0001077,51.8803,173.7473,58.6162,301.4931,0,U,69770,999,222,.32477E-3,.12223E-3,0
KUIPER-00611,2026-151J,2026-07-16T13:00:02.524032,15.38468737,.0001612,51.8804,173.7561,107.3381,252.7783,0,U,69771,999,222,.34673E-3,.12996E-3,0
KUIPER-00612,2026-151K,2026-07-16T13:06:50.586912,15.37960292,.0003619,51.8792,173.7927,119.5701,240.5647,0,U,69772,999,222,.33277E-3,.12247E-3,0
KUIPER-00614,2026-151L,2026-07-16T13:04:01.732800,15.38167261,.000268,51.8804,173.7764,126.8385,233.2848,0,U,69773,999,222,.3161E-3,.11692E-3,0
KUIPER-00615,2026-151M,2026-07-16T10:09:08.108064,15.37238610,.0006128,51.8769,174.4652,152.0623,208.0693,0,U,69774,999,220,.22801E-3,.8067E-4,0
KUIPER-00616,2026-151N,2026-07-16T13:01:46.399296,15.38413416,.0003089,51.8784,173.7710,126.8965,233.2306,0,U,69775,999,222,.34354E-3,.12849E-3,0
KUIPER-00617,2026-151P,2026-07-16T11:35:01.551840,15.37799024,.0004034,51.8795,174.1139,140.8794,219.2485,0,U,69776,999,221,.30667E-3,.11194E-3,0
KUIPER-00619,2026-151Q,2026-07-16T12:58:38.754048,15.38561412,.0001798,51.8801,173.7524,67.9903,292.1275,0,U,69777,999,222,.33088E-3,.12421E-3,0
KUIPER-00621,2026-151R,2026-07-16T13:01:39.610848,15.38351143,.0001996,51.8794,173.7694,116.2910,243.8282,0,U,69778,999,222,.33015E-3,.12306E-3,0
