STARLINK-37987          
1 69749U 26150L   26197.83335647  .00017988  00000+0  12139-3 0  9994
2 69749  97.2857  36.2716 0001362 102.0567  84.5928 15.75157051  3560
STARLINK-38037          
1 69750U 26150M   26197.52835899  .00239225  00000+0  12102-2 0  9995
2 69750  97.2823  35.9956 0001698 107.9131 252.2323 15.80915172  3532
STARLINK-38049          
1 69751U 26150N   26197.52733977  .00199931  00000+0  10178-2 0  9990
2 69751  97.2840  35.9982 0001142 114.7185 245.4202 15.80879851  3533
STARLINK-38029          
1 69752U 26150P   26197.83335647 -.00130330  00000+0 -88508-3 0  9990
2 69752  97.2847  36.3137 0001171  99.5051 181.1261 15.75221935  3564
STARLINK-37965          
1 69753U 26150Q   26197.83335647 -.00072542  00000+0 -48945-3 0  9992
2 69753  97.2846  36.2964 0001335  90.0487 152.5854 15.75198031  3562
STARLINK-38048          
1 69754U 26150R   26197.52121888  .00332728  00000+0  16624-2 0  9990
2 69754  97.2830  36.0066 0000923 127.9719 232.1633 15.80946674  3534
STARLINK-38006          
1 69755U 26150S   26197.83335647 -.00129360  00000+0 -87851-3 0  9994
2 69755  97.2843  36.3199 0000888 110.1972 184.4355 15.75219465  3562
STARLINK-38036          
1 69756U 26150T   26197.83335647 -.00063169  00000+0 -42571-3 0  9999
2 69756  97.2847  36.3364 0001030  97.4027 235.2186 15.75194421  3560
STARLINK-38058          
1 69757U 26150U   26197.51687410 -.00019053  00000+0 -99102-4 0  9999
2 69757  97.2792  36.0145 0000963  44.0115 316.1230 15.80782261  3531
STARLINK-38066          
1 69758U 26150V   26197.51672120  .00332119  00000+0  16597-2 0  9996
2 69758  97.2826  36.0134 0001105 123.4437 236.6937 15.80944595  3536
STARLINK-38035          
1 69759U 26150W   26197.51659780  .00328828  00000+0  16439-2 0  9991
2 69759  97.2826  36.0135 0001208 127.8766 232.2612 15.80943955  3536
STARLINK-38056          
1 69760U 26150X   26197.51314054  .00330031  00000+0  16504-2 0  9997
2 69760  97.2830  36.0188 0001262 120.3453 239.7940 15.80934261  3538
STARLINK-38069          
1 69761U 26150Y   26197.50968189  .00266864  00000+0  13455-2 0  9995
2 69761  97.2831  36.0229 0001586 115.6354 244.5079 15.80918590  3536
STARLINK-38019          
1 69762U 26150Z   26197.83335647 -.00058907  00000+0 -39683-3 0  9990
2 69762  97.2839  36.3210 0000797  86.1279 212.5072 15.75188826  3565
KUIPER-00258            
1 69763U 26151A   26197.89445972 -.00121129  00000+0 -35556-2 0  9992
2 69763  51.8672 172.3653 0012571 167.2634 192.8672 15.34938526  2276
KUIPER-00526            
1 69764U 26151B   26197.55219562  .00011639  00000+0  32313-3 0  9991
2 69764  51.8759 173.8315 0005902 143.0634 217.0760 15.37335722  2221
KUIPER-00558            
1 69765U 26151C   26197.88300450 -.00181799  00000+0 -53616-2 0  9990
2 69765  51.8751 172.2967 0007487 160.1775 199.9503 15.35130973  2273
KUIPER-00569            
1 69766U 26151D   26197.42053633  .00147069  00000+0  38488-2 0  9999
2 69766  51.8774 174.4478 0003566 139.8001 220.3251 15.37675352  2208
KUIPER-00589            
1 69767U 26151E   26197.48634668  .00002813  00000+0  86126-4 0  9990
2 69767  51.8750 174.1407 0005401 146.7112 213.4215 15.37366483  2218
KUIPER-00598            
1 69768U 26151F   26197.30862517 -.00716870  00000+0 -23330-1 0  9990
2 69768  51.8664 175.1913 0017224 146.2210 213.9876 15.33661092  2180
KUIPER-00604            
1 69769U 26151G   26197.47870113  .00008806  00000+0  24006-3 0  9994
2 69769  51.8797 174.0877 0002703 110.2726 249.8551 15.38250655  2210
KUIPER-00609            
1 69770U 26151H   26197.53981409  .00012223  00000+0  32477-3 0  9993
2 69770  51.8803 173.7473 0001077  58.6162 301.4931 15.38657691  2229
KUIPER-00611            
1 69771U 26151J   26197.54169588  .00012996  00000+0  34673-3 0  9998
2 69771  51.8804 173.7561 0001612 107.3381 252.7783 15.38468737  2223
KUIPER-00612            
1 69772U 26151K   26197.54641883  .00012247  00000+0  33277-3 0  9990
2 69772  51.8792 173.7927 0003619 119.5701 240.5647 15.37960292  2222
KUIPER-00614            
1 69773U 26151L   26197.54446450  .00011692  00000+0  31610-3 0  9996
2 69773  51.8804 173.7764 0002680 126.8385 233.2848 15.38167261  2220
KUIPER-00615            
1 69774U 26151M   26197.42301051  .00008067  00000+0  22801-3 0  9995
2 69774  51.8769 174.4652 0006128 152.0623 208.0693 15.37238610  2204
KUIPER-00616            
1 69775U 26151N   26197.54289814  .00012849  00000+0  34354-3 0  9990
2 69775  51.8784 173.7710 0003089 126.8965 233.2306 15.38413416  2223
KUIPER-00617            
1 69776U 26151P   26197.48265685  .00011194  00000+0  30667-3 0  9999
2 69776  51.8795 174.1139 0004034 140.8794 219.2485 15.37799024  2215
KUIPER-00619            
1 69777U 26151Q   26197.54072632  .00012421  00000+0  33088-3 0  9999
2 69777  51.8801 173.7524 0001798  67.9903 292.1275 15.38561412  2229
KUIPER-00621            
1 69778U 26151R   26197.54281957  .00012306  00000+0  33015-3 0  9994
2 69778  51.8794 173.7694 0001996 116.2910 243.8282 15.38351143  2224
